{"dragon": {"capsule": null, "mass_returned_kg": null, "mass_returned_lbs": null, "flight_time_sec": null, "manifest": null, "water_landing": null, "land_landing": null}, "name": "Starlink-7", "type": "Satellite", "reused": false, "launch": "5eb87d45ffd86e000604b387", "customers": ["SpaceX"], "norad_ids": [45657, 45658, 45659, 45660, 45661, 45662, 45663, 45664, 45665, 45666, 45667, 45668, 45669, 45670, 45671, 45672, 45673, 45674, 45675, 45676, 45677, 45678, 45679, 45680, 45681, 45682, 45683, 45684, 45685, 45686, 45687, 45688, 45689, 45690, 45691, 45692, 45693, 45694, 45695, 45696, 45697, 45698, 45699, 45700, 45701, 45702, 45703, 45704, 45705, 45706, 45707, 45708, 45709, 45710, 45711, 45712, 45713, 45714, 45715, 45716], "nationalities": ["United States"], "manufacturers": ["SpaceX"], "mass_kg": 15600, "mass_lbs": 34392, "orbit": "VLEO", "reference_system": "geocentric", "regime": "very-low-earth", "longitude": null, "semi_major_axis_km": 6526.082, "eccentricity": 0.0028054, "periapsis_km": 129.639, "apoapsis_km": 166.255, "inclination_deg": 53.0001, "period_min": 87.445, "lifespan_years": null, "epoch": "2020-07-14T14:23:37.000Z", "mean_motion": 16.46735707, "raan": 319.7129, "arg_of_pericenter": 181.2741, "mean_anomaly": 293.9291, "id": "5eb0e4d1b6c3bb0006eeb256"}